[{"OBJECT_NAME":"STARLINK-5531","OBJECT_ID":"2023-013BE","EPOCH":"2026-03-09T22:00:01.999584","MEAN_MOTION":15.06159419,"ECCENTRICITY":9.438e-5,"INCLINATION":43.0003,"RA_OF_ASC_NODE":285.7881,"ARG_OF_PERICENTER":293.9763,"MEAN_ANOMALY":188.4027,"EPHEMERIS_TYPE":0,"CLASSIFICATION_TYPE":"U","NORAD_CAT_ID":55383,"ELEMENT_SET_NO":999,"REV_AT_EPOCH":573,"BSTAR":0.0029014075,"MEAN_MOTION_DOT":0.00043241,"MEAN_MOTION_DDOT":0},{"OBJECT_NAME":"FENGYUN 1C DEB","OBJECT_ID":"1999-025DEQ","EPOCH":"2026-03-08T16:18:11.400768","MEAN_MOTION":15.03063896,"ECCENTRICITY":0.0041192,"INCLINATION":98.802,"RA_OF_ASC_NODE":149.1421,"ARG_OF_PERICENTER":81.4798,"MEAN_ANOMALY":279.1089,"EPHEMERIS_TYPE":0,"CLASSIFICATION_TYPE":"U","NORAD_CAT_ID":33655,"ELEMENT_SET_NO":999,"REV_AT_EPOCH":97846,"BSTAR":0.0032042236,"MEAN_MOTION_DOT":0.0004416,"MEAN_MOTION_DDOT":0}]
